{
  "type": "FeatureCollection",
  "features": [
    {
      "type": "Feature",
      "properties": {
        "norad_id": 41330,
        "name": "COSMOS 2514 (751)",
        "group": "glo-ops",
        "lat": 2.2389367188850735,
        "lon": 137.8853480116503,
        "alt_km": 19108.435092493288,
        "timestamp": "2025-12-26T08:37:54.841498+00:00",
        "meta_object_name": "COSMOS 2514 (751)",
        "meta_object_id": "2016-008A",
        "meta_epoch": "2025-12-26T03:04:27.973056",
        "meta_mean_motion": 2.13102553,
        "meta_eccentricity": 0.001154,
        "meta_inclination": 65.126,
        "meta_ra_of_asc_node": 318.9457,
        "meta_arg_of_pericenter": 220.0269,
        "meta_mean_anomaly": 139.8925,
        "meta_ephemeris_type": 0,
        "meta_classification_type": "U",
        "meta_norad_cat_id": 41330,
        "meta_element_set_no": 999,
        "meta_rev_at_epoch": 7693,
        "meta_bstar": 0,
        "meta_mean_motion_dot": -3.4e-07,
        "meta_mean_motion_ddot": 0,
        "tle_line1": "1 41330U 16008A   25360.12810154 -.00000034  00000+0  00000+0 0  9990",
        "tle_line2": "2 41330  65.1260 318.9457 0011540 220.0269 139.8925  2.13102553 76936"
      },
      "geometry": {
        "type": "Point",
        "coordinates": [
          137.8853480116503,
          2.2389367188850735
        ]
      }
    },
    {
      "type": "Feature",
      "properties": {
        "norad_id": 42939,
        "name": "COSMOS 2522 (752)",
        "group": "glo-ops",
        "lat": -49.88786891676908,
        "lon": 162.48858002265862,
        "alt_km": 19132.45913904246,
        "timestamp": "2025-12-26T08:37:54.841510+00:00",
        "meta_object_name": "COSMOS 2522 (752)",
        "meta_object_id": "2017-055A",
        "meta_epoch": "2025-12-25T23:11:37.074048",
        "meta_mean_motion": 2.13102023,
        "meta_eccentricity": 0.0006278,
        "meta_inclination": 64.0768,
        "meta_ra_of_asc_node": 197.7784,
        "meta_arg_of_pericenter": 223.1458,
        "meta_mean_anomaly": 136.8589,
        "meta_ephemeris_type": 0,
        "meta_classification_type": "U",
        "meta_norad_cat_id": 42939,
        "meta_element_set_no": 999,
        "meta_rev_at_epoch": 6428,
        "meta_bstar": 0,
        "meta_mean_motion_dot": 1.1e-06,
        "meta_mean_motion_ddot": 0,
        "tle_line1": "1 42939U 17055A   25359.96640132  .00000110  00000+0  00000+0 0  9990",
        "tle_line2": "2 42939  64.0768 197.7784 0006278 223.1458 136.8589  2.13102023 64285"
      },
      "geometry": {
        "type": "Point",
        "coordinates": [
          162.48858002265862,
          -49.88786891676908
        ]
      }
    },
    {
      "type": "Feature",
      "properties": {
        "norad_id": 43508,
        "name": "COSMOS 2527 (756)",
        "group": "glo-ops",
        "lat": -25.53600005219533,
        "lon": 67.11066777100862,
        "alt_km": 19138.672806270544,
        "timestamp": "2025-12-26T08:37:54.841540+00:00",
        "meta_object_name": "COSMOS 2527 (756)",
        "meta_object_id": "2018-053A",
        "meta_epoch": "2025-12-25T22:15:18.516960",
        "meta_mean_motion": 2.13102285,
        "meta_eccentricity": 0.0009128,
        "meta_inclination": 65.4787,
        "meta_ra_of_asc_node": 79.6912,
        "meta_arg_of_pericenter": 228.9036,
        "meta_mean_anomaly": 131.0649,
        "meta_ephemeris_type": 0,
        "meta_classification_type": "U",
        "meta_norad_cat_id": 43508,
        "meta_element_set_no": 999,
        "meta_rev_at_epoch": 5858,
        "meta_bstar": 0,
        "meta_mean_motion_dot": -3e-08,
        "meta_mean_motion_ddot": 0,
        "tle_line1": "1 43508U 18053A   25359.92729765 -.00000003  00000+0  00000+0 0  9990",
        "tle_line2": "2 43508  65.4787  79.6912 0009128 228.9036 131.0649  2.13102285 58587"
      },
      "geometry": {
        "type": "Point",
        "coordinates": [
          67.11066777100862,
          -25.53600005219533
        ]
      }
    },
    {
      "type": "Feature",
      "properties": {
        "norad_id": 43687,
        "name": "COSMOS 2529 (757)",
        "group": "glo-ops",
        "lat": -61.37314221788958,
        "lon": 80.42761153774417,
        "alt_km": 19118.752175569774,
        "timestamp": "2025-12-26T08:37:54.841556+00:00",
        "meta_object_name": "COSMOS 2529 (757)",
        "meta_object_id": "2018-086A",
        "meta_epoch": "2025-12-23T05:01:04.327104",
        "meta_mean_motion": 2.13102131,
        "meta_eccentricity": 0.0006897,
        "meta_inclination": 64.2927,
        "meta_ra_of_asc_node": 198.5346,
        "meta_arg_of_pericenter": 253.659,
        "meta_mean_anomaly": 106.3281,
        "meta_ephemeris_type": 0,
        "meta_classification_type": "U",
        "meta_norad_cat_id": 43687,
        "meta_element_set_no": 999,
        "meta_rev_at_epoch": 5553,
        "meta_bstar": 0,
        "meta_mean_motion_dot": 9.5e-07,
        "meta_mean_motion_ddot": 0,
        "tle_line1": "1 43687U 18086A   25357.20907786  .00000095  00000+0  00000+0 0  9994",
        "tle_line2": "2 43687  64.2927 198.5346 0006897 253.6590 106.3281  2.13102131 55539"
      },
      "geometry": {
        "type": "Point",
        "coordinates": [
          80.42761153774417,
          -61.37314221788958
        ]
      }
    },
    {
      "type": "Feature",
      "properties": {
        "norad_id": 44299,
        "name": "COSMOS 2534 (758)",
        "group": "glo-ops",
        "lat": 28.081578076820676,
        "lon": -146.71331949252772,
        "alt_km": 19133.363267972858,
        "timestamp": "2025-12-26T08:37:54.841568+00:00",
        "meta_object_name": "COSMOS 2534 (758)",
        "meta_object_id": "2019-030A",
        "meta_epoch": "2025-12-26T02:10:04.232064",
        "meta_mean_motion": 2.13102148,
        "meta_eccentricity": 0.0008616,
        "meta_inclination": 64.3664,
        "meta_ra_of_asc_node": 198.4428,
        "meta_arg_of_pericenter": 283.8414,
        "meta_mean_anomaly": 260.9701,
        "meta_ephemeris_type": 0,
        "meta_classification_type": "U",
        "meta_norad_cat_id": 44299,
        "meta_element_set_no": 999,
        "meta_rev_at_epoch": 5123,
        "meta_bstar": 0,
        "meta_mean_motion_dot": 1.1e-06,
        "meta_mean_motion_ddot": 0,
        "tle_line1": "1 44299U 19030A   25360.09032676  .00000110  00000+0  00000+0 0  9990",
        "tle_line2": "2 44299  64.3664 198.4428 0008616 283.8414 260.9701  2.13102148 51234"
      },
      "geometry": {
        "type": "Point",
        "coordinates": [
          -146.71331949252772,
          28.081578076820676
        ]
      }
    },
    {
      "type": "Feature",
      "properties": {
        "norad_id": 44850,
        "name": "COSMOS 2544 (759)",
        "group": "glo-ops",
        "lat": 12.897951063848232,
        "lon": 85.50931907774931,
        "alt_km": 19149.051895426757,
        "timestamp": "2025-12-26T08:37:54.841580+00:00",
        "meta_object_name": "COSMOS 2544 (759)",
        "meta_object_id": "2019-088A",
        "meta_epoch": "2025-12-25T20:55:29.447040",
        "meta_mean_motion": 2.13102067,
        "meta_eccentricity": 0.0014429,
        "meta_inclination": 65.4663,
        "meta_ra_of_asc_node": 79.5196,
        "meta_arg_of_pericenter": 250.7311,
        "meta_mean_anomaly": 109.1604,
        "meta_ephemeris_type": 0,
        "meta_classification_type": "U",
        "meta_norad_cat_id": 44850,
        "meta_element_set_no": 999,
        "meta_rev_at_epoch": 4702,
        "meta_bstar": 0,
        "meta_mean_motion_dot": -3e-08,
        "meta_mean_motion_ddot": 0,
        "tle_line1": "1 44850U 19088A   25359.87186860 -.00000003  00000+0  00000+0 0  9997",
        "tle_line2": "2 44850  65.4663  79.5196 0014429 250.7311 109.1604  2.13102067 47025"
      },
      "geometry": {
        "type": "Point",
        "coordinates": [
          85.50931907774931,
          12.897951063848232
        ]
      }
    },
    {
      "type": "Feature",
      "properties": {
        "norad_id": 45358,
        "name": "COSMOS 2545 (760)",
        "group": "glo-ops",
        "lat": -38.77549703139797,
        "lon": 161.04664650955544,
        "alt_km": 19109.09707711384,
        "timestamp": "2025-12-26T08:37:54.841591+00:00",
        "meta_object_name": "COSMOS 2545 (760)",
        "meta_object_id": "2020-018A",
        "meta_epoch": "2025-12-26T01:37:18.326208",
        "meta_mean_motion": 2.13102641,
        "meta_eccentricity": 0.0011272,
        "meta_inclination": 64.4616,
        "meta_ra_of_asc_node": 318.5027,
        "meta_arg_of_pericenter": 250.7624,
        "meta_mean_anomaly": 109.1203,
        "meta_ephemeris_type": 0,
        "meta_classification_type": "U",
        "meta_norad_cat_id": 45358,
        "meta_element_set_no": 999,
        "meta_rev_at_epoch": 4497,
        "meta_bstar": 0,
        "meta_mean_motion_dot": -3.5e-07,
        "meta_mean_motion_ddot": 0,
        "tle_line1": "1 45358U 20018A   25360.06757322 -.00000035  00000+0  00000+0 0  9991",
        "tle_line2": "2 45358  64.4616 318.5027 0011272 250.7624 109.1203  2.13102641 44979"
      },
      "geometry": {
        "type": "Point",
        "coordinates": [
          161.04664650955544,
          -38.77549703139797
        ]
      }
    }
  ]
}